METHANESAT              
1 59101U 24043D   25268.33791138  .00006290  00000+0  56593-3 0  9994
2 59101  97.8131  34.0159 0010957 170.5480 189.5949 14.95945139 85026
GOSAT-GW (IBUKI GW)     
1 64694U 25141A   25266.46538786  .00001696  00000+0  30721-3 0  9997
2 64694  98.0289 203.4867 0001541  81.4905 278.6474 14.67574453 12721
GHGSAT-C1               
1 46278U 20061G   25268.27488527  .00029059  00000+0  44904-3 0  9990
2 46278  97.2405 342.8358 0000561 329.2166  30.9055 15.54063604282110
GHGSAT-C12              
1 64529U 25135B   25268.25956816  .00007796  00000+0  39018-3 0  9999
2 64529  97.4562  21.2469 0005635  30.5813 329.5748 15.17667581 14600
GHGSAT-C13              
1 64548U 25135W   25268.26284507  .00006986  00000+0  34141-3 0  9994
2 64548  97.4586  21.4223 0000967  32.1470 327.9823 15.18548345 14611
GHGSAT-C2               
1 47509U 21006DA  25268.11493237  .00010059  00000+0  31206-3 0  9996
2 47509  97.2571 314.9779 0006965  54.2855 305.9035 15.33568867259163
GHGSAT-C3               
1 52737U 22057F   25268.35833926  .00011585  00000+0  40536-3 0  9992
2 52737  97.6269  40.5883 0006093 349.9506  10.1611 15.29670238184980
GHGSAT-C4               
1 52746U 22057Q   25268.31153774  .00012502  00000+0  43732-3 0  9995
2 52746  97.6196  39.6359 0006049 333.9101  26.1833 15.29657613184986
GHGSAT-C5               
1 52744U 22057N   25268.26283676  .00012745  00000+0  44583-3 0  9996
2 52744  97.6356  41.7562 0007029 344.7260  15.3766 15.29648470184972
GHGSAT-C6               
1 56204U 23054AC  25268.26966247  .00020019  00000+0  44152-3 0  9996
2 56204  97.3184 169.8576 0006289 292.2958  67.7623 15.43919301137452
GHGSAT-C7               
1 56209U 23054AH  25268.25359718  .00016197  00000+0  37072-3 0  9994
2 56209  97.3144 169.2714 0006521 284.3328  75.7196 15.42854433137449
GHGSAT-C8               
1 56186U 23054J   25268.30861535  .00019525  00000+0  43064-3 0  9995
2 56186  97.3152 169.3569 0004274 326.8435  33.2545 15.43933689137444
SENTINEL-5P             
1 42969U 17064A   25268.24570230  .00000192  00000+0  11175-3 0  9993
2 42969  98.7642 207.5780 0000895  80.5005 279.6272 14.19549516411979
ENMAP                   
1 52159U 22033C   25268.25347772  .00001186  00000+0  18380-3 0  9990
2 52159  97.9793 349.3029 0001286  97.1337 263.0018 14.74999080187608
PRISMA                  
1 44072U 19015A   25268.29682472  .00002117  00000+0  26272-3 0  9998
2 44072  97.8670 341.8705 0001142  99.2909 260.8435 14.83662407352773
SENTINEL-2A             
1 40697U 15028A   25268.24965097  .00000308  00000+0  13398-3 0  9994
2 40697  98.5704 341.8927 0001126  96.0627 264.0684 14.30817110535846
SENTINEL-2B             
1 42063U 17013A   25268.31240355  .00000311  00000+0  13528-3 0  9999
2 42063  98.5706 341.8902 0001089  88.4135 271.7173 14.30814037446762
SENTINEL-2C             
1 60989U 24157A   25268.20768664  .00000289  00000+0  12695-3 0  9997
2 60989  98.5680 341.8534 0001047  86.8815 273.2487 14.30813754 55094
LANDSAT 8               
1 39084U 13008A   25268.23575764  .00000798  00000+0  18720-3 0  9992
2 39084  98.2164 337.4285 0001203  94.6691 265.4645 14.57112762659311
LANDSAT 9               
1 49260U 21088A   25268.27011807  .00000861  00000+0  20114-3 0  9994
2 49260  98.2181 337.4790 0001270  95.1723 264.9620 14.57107685212426
